{
  "norad_id": 49071,
  "name": "TIANHUI 2-02A",
  "history": [
    {
      "epoch": "2026-03-27T12:31:34.174848Z",
      "apogee_km": 516.753505053829,
      "perigee_km": 514.6660482498582,
      "latitude_deg": -4.6195003346952395e-05,
      "longitude_deg": 77.97328977533317,
      "height_km": 518.9100048664001,
      "semi_major_axis_km": 6893.846776651843,
      "eccentricity": 0.0001514,
      "inclination_deg": 97.4827,
      "raan_deg": 90.8212,
      "arg_perigee_deg": 96.5405,
      "mean_anomaly_deg": 263.6,
      "mean_motion_rev_day": 15.16737143
    },
    {
      "epoch": "2026-03-30T13:21:35.499168Z",
      "apogee_km": 516.6962361875412,
      "perigee_km": 514.6125188057786,
      "latitude_deg": -2.142001640392639e-05,
      "longitude_deg": 65.47129484059799,
      "height_km": 518.8971801732633,
      "semi_major_axis_km": 6893.791377496659,
      "eccentricity": 0.00015113,
      "inclination_deg": 97.4823,
      "raan_deg": 93.8159,
      "arg_perigee_deg": 98.9119,
      "mean_anomaly_deg": 261.2285,
      "mean_motion_rev_day": 15.16755426
    }
  ]
}